NEMO-HD                 
1 46277U 20061F   25165.74755149  .00007562  00000+0  21689-3 0  9994
2 46277  97.2438 227.4640 0000729  86.4821 273.6506 15.36158002265422
SENTINEL-6              
1 46984U 20086A   25165.50398058 -.00000055  00000+0  27570-4 0  9999
2 46984  66.0388 178.7366 0008104 270.2998  89.7089 12.80931217213238
GAOFEN-12 02            
1 48079U 21026A   25165.88411004  .00000418  00000+0  61615-4 0  9999
2 48079  97.9733 160.8789 0002126  15.9646 344.1633 14.80413445227413
PLEIADES NEO 3          
1 48268U 21034A   25165.87652524  .00001115  00000+0  14828-3 0  9999
2 48268  97.8942 240.9122 0001686  96.6263 263.5142 14.81668536223268
PLEIADES NEO 4          
1 49070U 21073E   25165.84275201  .00001143  00000+0  15180-3 0  9997
2 49070  97.8941 240.8760 0001576  91.5954 268.5439 14.81686846206972
LANDSAT 9               
1 49260U 21088A   25165.81469309  .00000390  00000+0  96778-4 0  9991
2 49260  98.2276 236.3172 0001463  98.5542 261.5822 14.57096887197499
CSG-2                   
1 51444U 22008A   25165.82789449  .00000382  00000+0  54540-4 0  9994
2 51444  97.8876 349.7589 0001496  88.8004 271.3381 14.82158257182175
GAOFEN-12 03            
1 52912U 22069A   25165.87626658  .00001295  00000+0  17525-3 0  9994
2 52912  97.8709  57.0392 0001245  93.8791 266.2564 14.80670637160286
SWOT                    
1 54754U 22173A   25165.57054335  .00000034  00000+0  24859-4 0  9999
2 54754  77.6087 171.5550 0000960 171.3614 188.7555 14.00172482127709
GAOFEN-12 04            
1 57654U 23123A   25165.77289870  .00001128  00000+0  15363-3 0  9997
2 57654  97.9109  84.2268 0002601  96.0756 264.0753 14.80656904 98283
PARS 1                  
1 59065U 24039Q   25165.78316523  .00008564  00000+0  24131-3 0  9993
2 59065  97.4401 133.8673 0011540   9.7934 350.3533 15.36621428 72061
RESURS-P 4              
1 59371U 24061A   25165.85018869  .00003492  00000+0  11504-3 0  9993
2 59371  97.2314 116.0750 0001066 136.0300 224.1027 15.32124856 67502
LEGION 1                
1 59625U 24081A   25165.85382401  .00004162  00000+0  21532-3 0  9990
2 59625  97.5361 241.7179 0004780  48.2189 311.9452 15.16790771 61851
LEGION 2                
1 59626U 24081B   25165.68976538  .00005056  00000+0  26084-3 0  9992
2 59626  97.5364 241.6331 0003629  84.3840 275.7806 15.16783764 61832
