[
  {
    "OBJECT_NAME": "NEMO-HD",
    "OBJECT_ID": "2020-061F",
    "EPOCH": "2025-06-14T17:56:28.448736",
    "MEAN_MOTION": 15.36158002,
    "ECCENTRICITY": 7.29e-05,
    "INCLINATION": 97.2438,
    "RA_OF_ASC_NODE": 227.464,
    "ARG_OF_PERICENTER": 86.4821,
    "MEAN_ANOMALY": 273.6506,
    "EPHEMERIS_TYPE": 0,
    "CLASSIFICATION_TYPE": "U",
    "NORAD_CAT_ID": 46277,
    "ELEMENT_SET_NO": 999,
    "REV_AT_EPOCH": 26542,
    "BSTAR": 0.00021689,
    "MEAN_MOTION_DOT": 7.562e-05,
    "MEAN_MOTION_DDOT": 0
  },
  {
    "OBJECT_NAME": "SENTINEL-6",
    "OBJECT_ID": "2020-086A",
    "EPOCH": "2025-06-14T12:05:43.922112",
    "MEAN_MOTION": 12.80931217,
    "ECCENTRICITY": 0.0008104,
    "INCLINATION": 66.0388,
    "RA_OF_ASC_NODE": 178.7366,
    "ARG_OF_PERICENTER": 270.2998,
    "MEAN_ANOMALY": 89.7089,
    "EPHEMERIS_TYPE": 0,
    "CLASSIFICATION_TYPE": "U",
    "NORAD_CAT_ID": 46984,
    "ELEMENT_SET_NO": 999,
    "REV_AT_EPOCH": 21323,
    "BSTAR": 2.757e-05,
    "MEAN_MOTION_DOT": -5.5e-07,
    "MEAN_MOTION_DDOT": 0
  },
  {
    "OBJECT_NAME": "GAOFEN-12 02",
    "OBJECT_ID": "2021-026A",
    "EPOCH": "2025-06-14T21:13:07.107456",
    "MEAN_MOTION": 14.80413445,
    "ECCENTRICITY": 0.0002126,
    "INCLINATION": 97.9733,
    "RA_OF_ASC_NODE": 160.8789,
    "ARG_OF_PERICENTER": 15.9646,
    "MEAN_ANOMALY": 344.1633,
    "EPHEMERIS_TYPE": 0,
    "CLASSIFICATION_TYPE": "U",
    "NORAD_CAT_ID": 48079,
    "ELEMENT_SET_NO": 999,
    "REV_AT_EPOCH": 22741,
    "BSTAR": 6.1615e-05,
    "MEAN_MOTION_DOT": 4.18e-06,
    "MEAN_MOTION_DDOT": 0
  },
  {
    "OBJECT_NAME": "PLEIADES NEO 3",
    "OBJECT_ID": "2021-034A",
    "EPOCH": "2025-06-14T21:02:11.780736",
    "MEAN_MOTION": 14.81668536,
    "ECCENTRICITY": 0.0001686,
    "INCLINATION": 97.8942,
    "RA_OF_ASC_NODE": 240.9122,
    "ARG_OF_PERICENTER": 96.6263,
    "MEAN_ANOMALY": 263.5142,
    "EPHEMERIS_TYPE": 0,
    "CLASSIFICATION_TYPE": "U",
    "NORAD_CAT_ID": 48268,
    "ELEMENT_SET_NO": 999,
    "REV_AT_EPOCH": 22326,
    "BSTAR": 0.00014828,
    "MEAN_MOTION_DOT": 1.115e-05,
    "MEAN_MOTION_DDOT": 0
  },
  {
    "OBJECT_NAME": "PLEIADES NEO 4",
    "OBJECT_ID": "2021-073E",
    "EPOCH": "2025-06-14T20:13:33.773664",
    "MEAN_MOTION": 14.81686846,
    "ECCENTRICITY": 0.0001576,
    "INCLINATION": 97.8941,
    "RA_OF_ASC_NODE": 240.876,
    "ARG_OF_PERICENTER": 91.5954,
    "MEAN_ANOMALY": 268.5439,
    "EPHEMERIS_TYPE": 0,
    "CLASSIFICATION_TYPE": "U",
    "NORAD_CAT_ID": 49070,
    "ELEMENT_SET_NO": 999,
    "REV_AT_EPOCH": 20697,
    "BSTAR": 0.0001518,
    "MEAN_MOTION_DOT": 1.143e-05,
    "MEAN_MOTION_DDOT": 0
  },
  {
    "OBJECT_NAME": "LANDSAT 9",
    "OBJECT_ID": "2021-088A",
    "EPOCH": "2025-06-14T19:33:09.482976",
    "MEAN_MOTION": 14.57096887,
    "ECCENTRICITY": 0.0001463,
    "INCLINATION": 98.2276,
    "RA_OF_ASC_NODE": 236.3172,
    "ARG_OF_PERICENTER": 98.5542,
    "MEAN_ANOMALY": 261.5822,
    "EPHEMERIS_TYPE": 0,
    "CLASSIFICATION_TYPE": "U",
    "NORAD_CAT_ID": 49260,
    "ELEMENT_SET_NO": 999,
    "REV_AT_EPOCH": 19749,
    "BSTAR": 9.6778e-05,
    "MEAN_MOTION_DOT": 3.9e-06,
    "MEAN_MOTION_DDOT": 0
  },
  {
    "OBJECT_NAME": "CSG-2",
    "OBJECT_ID": "2022-008A",
    "EPOCH": "2025-06-14T19:52:10.083936",
    "MEAN_MOTION": 14.82158257,
    "ECCENTRICITY": 0.0001496,
    "INCLINATION": 97.8876,
    "RA_OF_ASC_NODE": 349.7589,
    "ARG_OF_PERICENTER": 88.8004,
    "MEAN_ANOMALY": 271.3381,
    "EPHEMERIS_TYPE": 0,
    "CLASSIFICATION_TYPE": "U",
    "NORAD_CAT_ID": 51444,
    "ELEMENT_SET_NO": 999,
    "REV_AT_EPOCH": 18217,
    "BSTAR": 5.454e-05,
    "MEAN_MOTION_DOT": 3.82e-06,
    "MEAN_MOTION_DDOT": 0
  },
  {
    "OBJECT_NAME": "GAOFEN-12 03",
    "OBJECT_ID": "2022-069A",
    "EPOCH": "2025-06-14T21:01:49.432512",
    "MEAN_MOTION": 14.80670637,
    "ECCENTRICITY": 0.0001245,
    "INCLINATION": 97.8709,
    "RA_OF_ASC_NODE": 57.0392,
    "ARG_OF_PERICENTER": 93.8791,
    "MEAN_ANOMALY": 266.2564,
    "EPHEMERIS_TYPE": 0,
    "CLASSIFICATION_TYPE": "U",
    "NORAD_CAT_ID": 52912,
    "ELEMENT_SET_NO": 999,
    "REV_AT_EPOCH": 16028,
    "BSTAR": 0.00017525,
    "MEAN_MOTION_DOT": 1.295e-05,
    "MEAN_MOTION_DDOT": 0
  },
  {
    "OBJECT_NAME": "SWOT",
    "OBJECT_ID": "2022-173A",
    "EPOCH": "2025-06-14T13:41:34.945440",
    "MEAN_MOTION": 14.00172482,
    "ECCENTRICITY": 9.6e-05,
    "INCLINATION": 77.6087,
    "RA_OF_ASC_NODE": 171.555,
    "ARG_OF_PERICENTER": 171.3614,
    "MEAN_ANOMALY": 188.7555,
    "EPHEMERIS_TYPE": 0,
    "CLASSIFICATION_TYPE": "U",
    "NORAD_CAT_ID": 54754,
    "ELEMENT_SET_NO": 999,
    "REV_AT_EPOCH": 12770,
    "BSTAR": 2.4859e-05,
    "MEAN_MOTION_DOT": 3.4e-07,
    "MEAN_MOTION_DDOT": 0
  },
  {
    "OBJECT_NAME": "GAOFEN-12 04",
    "OBJECT_ID": "2023-123A",
    "EPOCH": "2025-06-14T18:32:58.447680",
    "MEAN_MOTION": 14.80656904,
    "ECCENTRICITY": 0.0002601,
    "INCLINATION": 97.9109,
    "RA_OF_ASC_NODE": 84.2268,
    "ARG_OF_PERICENTER": 96.0756,
    "MEAN_ANOMALY": 264.0753,
    "EPHEMERIS_TYPE": 0,
    "CLASSIFICATION_TYPE": "U",
    "NORAD_CAT_ID": 57654,
    "ELEMENT_SET_NO": 999,
    "REV_AT_EPOCH": 9828,
    "BSTAR": 0.00015363,
    "MEAN_MOTION_DOT": 1.128e-05,
    "MEAN_MOTION_DDOT": 0
  },
  {
    "OBJECT_NAME": "PARS 1",
    "OBJECT_ID": "2024-039Q",
    "EPOCH": "2025-06-14T18:47:45.475872",
    "MEAN_MOTION": 15.36621428,
    "ECCENTRICITY": 0.001154,
    "INCLINATION": 97.4401,
    "RA_OF_ASC_NODE": 133.8673,
    "ARG_OF_PERICENTER": 9.7934,
    "MEAN_ANOMALY": 350.3533,
    "EPHEMERIS_TYPE": 0,
    "CLASSIFICATION_TYPE": "U",
    "NORAD_CAT_ID": 59065,
    "ELEMENT_SET_NO": 999,
    "REV_AT_EPOCH": 7206,
    "BSTAR": 0.00024131,
    "MEAN_MOTION_DOT": 8.564e-05,
    "MEAN_MOTION_DDOT": 0
  },
  {
    "OBJECT_NAME": "RESURS-P 4",
    "OBJECT_ID": "2024-061A",
    "EPOCH": "2025-06-14T20:24:16.302816",
    "MEAN_MOTION": 15.32124856,
    "ECCENTRICITY": 0.0001066,
    "INCLINATION": 97.2314,
    "RA_OF_ASC_NODE": 116.075,
    "ARG_OF_PERICENTER": 136.03,
    "MEAN_ANOMALY": 224.1027,
    "EPHEMERIS_TYPE": 0,
    "CLASSIFICATION_TYPE": "U",
    "NORAD_CAT_ID": 59371,
    "ELEMENT_SET_NO": 999,
    "REV_AT_EPOCH": 6750,
    "BSTAR": 0.00011504,
    "MEAN_MOTION_DOT": 3.492e-05,
    "MEAN_MOTION_DDOT": 0
  },
  {
    "OBJECT_NAME": "LEGION 1",
    "OBJECT_ID": "2024-081A",
    "EPOCH": "2025-06-14T20:29:30.394464",
    "MEAN_MOTION": 15.16790771,
    "ECCENTRICITY": 0.000478,
    "INCLINATION": 97.5361,
    "RA_OF_ASC_NODE": 241.7179,
    "ARG_OF_PERICENTER": 48.2189,
    "MEAN_ANOMALY": 311.9452,
    "EPHEMERIS_TYPE": 0,
    "CLASSIFICATION_TYPE": "U",
    "NORAD_CAT_ID": 59625,
    "ELEMENT_SET_NO": 999,
    "REV_AT_EPOCH": 6185,
    "BSTAR": 0.00021532,
    "MEAN_MOTION_DOT": 4.162e-05,
    "MEAN_MOTION_DDOT": 0
  },
  {
    "OBJECT_NAME": "LEGION 2",
    "OBJECT_ID": "2024-081B",
    "EPOCH": "2025-06-14T16:33:15.728832",
    "MEAN_MOTION": 15.16783764,
    "ECCENTRICITY": 0.0003629,
    "INCLINATION": 97.5364,
    "RA_OF_ASC_NODE": 241.6331,
    "ARG_OF_PERICENTER": 84.384,
    "MEAN_ANOMALY": 275.7806,
    "EPHEMERIS_TYPE": 0,
    "CLASSIFICATION_TYPE": "U",
    "NORAD_CAT_ID": 59626,
    "ELEMENT_SET_NO": 999,
    "REV_AT_EPOCH": 6183,
    "BSTAR": 0.00026084,
    "MEAN_MOTION_DOT": 5.056e-05,
    "MEAN_MOTION_DDOT": 0
  }
]